STARLINK-1973
1 27628C 21012J   21325.16856228  .00004944  00000-0  33135-3 0  3256
2 27628  53.0554 277.4808 0001868  60.3092 268.1348 15.06382390    10
